STARLINK-30973          
1 58713U 24002J   26025.82253697 -.00000047  00000+0  10552-4 0  9997
2 58713  53.1618  68.9467 0001633  89.4068 270.7120 15.30197406115459
STARLINK-31100          
1 58714U 24002K   26025.49912819 -.00001880  00000+0 -51345-4 0  9991
2 58714  53.1613  70.4807 0001685 136.4709 223.6425 15.30198452115405
STARLINK-31102          
1 58715U 24002L   26025.84996974 -.00001120  00000+0 -25696-4 0  9992
2 58715  53.1597  69.1101 0001195  89.7778 270.3360 15.30205649115450
STARLINK-31098          
1 58716U 24002M   26025.50123492 -.00002145  00000+0 -60266-4 0  9993
2 58716  53.1617  70.4901 0001636 120.4052 239.7111 15.30213586115402
STARLINK-31093          
1 58717U 24002N   26025.83520374  .00001702  00000+0  69579-4 0  9992
2 58717  53.1594  69.0373 0001277  87.7449 272.3698 15.30196549115457
STARLINK-31097          
1 58718U 24002P   26025.50546094  .00000995  00000+0  45730-4 0  9990
2 58718  53.1595  70.5187 0001244  95.0182 265.0960 15.30191905115406
STARLINK-31051          
1 58719U 24002Q   26025.83731019  .00000198  00000+0  18822-4 0  9997
2 58719  53.1609  69.0334 0001424  92.2440 267.8723 15.30195847115457
STARLINK-31027          
1 58720U 24002R   26025.83493726  .00158017  00000+0  47886-2 0  9993
2 58720  53.1584  68.3158 0003400  60.5108 299.6233 15.33058246115466
STARLINK-30972          
1 58721U 24002S   26025.49702168 -.00001581  00000+0 -41257-4 0  9992
2 58721  53.1616  70.4672 0001207  54.6541 305.4573 15.30210792115406
STARLINK-31040          
1 58722U 24002T   26025.38328672 -.00000955  00000+0 -20122-4 0  9997
2 58722  53.1627  71.1746 0001645  96.8643 263.2545 15.30179948115380
STARLINK-31033          
1 58723U 24002U   26025.50441183  .00000255  00000+0  20732-4 0  9993
2 58723  53.1599  70.5080 0001320  85.1121 275.0031 15.30187808115403
STARLINK-30893          
1 58724U 24002V   26025.85314924  .00006784  00000+0  24115-3 0  9995
2 58724  53.1599  69.1339 0001562 104.9798 255.1376 15.30173319115440
STARLINK-30856          
1 58725U 24002W   26025.82675663  .00000031  00000+0  13178-4 0  9990
2 58725  53.1629  68.9678 0001099  80.6549 279.4576 15.30198069115458
STARLINK-31115          
1 58729U 24005B   26025.59522067 -.00002404  00000+0 -16294-3 0  9999
2 58729  43.0035  95.3916 0001385 263.6468  96.4216 15.02537975113932
STARLINK-31180          
1 58732U 24005E   26025.62187020 -.00001060  00000+0 -63434-4 0  9999
2 58732  43.0016  95.6013 0001487 247.3048 112.7637 15.02517170113936
STARLINK-31164          
1 58733U 24005F   26025.59199859 -.00001552  00000+0 -99826-4 0  9999
2 58733  43.0045  96.2278 0001017 278.8527  81.2200 15.02538127113929
