[{"OBJECT_NAME":"STARLINK-30973","OBJECT_ID":"2024-002J","EPOCH":"2026-01-25T19:44:27.194208","MEAN_MOTION":15.30197406,"ECCENTRICITY":0.00016335,"INCLINATION":53.1618,"RA_OF_ASC_NODE":68.9467,"ARG_OF_PERICENTER":89.4068,"MEAN_ANOMALY":270.712,"EPHEMERIS_TYPE":0,"CLASSIFICATION_TYPE":"U","NORAD_CAT_ID":58713,"ELEMENT_SET_NO":999,"REV_AT_EPOCH":11545,"BSTAR":1.0552145e-5,"MEAN_MOTION_DOT":-4.7e-7,"MEAN_MOTION_DDOT":0},{"OBJECT_NAME":"STARLINK-31100","OBJECT_ID":"2024-002K","EPOCH":"2026-01-25T11:58:44.675616","MEAN_MOTION":15.30198452,"ECCENTRICITY":0.00016857,"INCLINATION":53.1613,"RA_OF_ASC_NODE":70.4807,"ARG_OF_PERICENTER":136.4709,"MEAN_ANOMALY":223.6425,"EPHEMERIS_TYPE":0,"CLASSIFICATION_TYPE":"U","NORAD_CAT_ID":58714,"ELEMENT_SET_NO":999,"REV_AT_EPOCH":11540,"BSTAR":-5.1345492e-5,"MEAN_MOTION_DOT":-1.88e-5,"MEAN_MOTION_DDOT":0},{"OBJECT_NAME":"STARLINK-31102","OBJECT_ID":"2024-002L","EPOCH":"2026-01-25T20:23:57.385536","MEAN_MOTION":15.30205649,"ECCENTRICITY":0.00011959,"INCLINATION":53.1597,"RA_OF_ASC_NODE":69.1101,"ARG_OF_PERICENTER":89.7778,"MEAN_ANOMALY":270.336,"EPHEMERIS_TYPE":0,"CLASSIFICATION_TYPE":"U","NORAD_CAT_ID":58715,"ELEMENT_SET_NO":999,"REV_AT_EPOCH":11545,"BSTAR":-2.5695645e-5,"MEAN_MOTION_DOT":-1.12e-5,"MEAN_MOTION_DDOT":0},{"OBJECT_NAME":"STARLINK-31098","OBJECT_ID":"2024-002M","EPOCH":"2026-01-25T12:01:46.697088","MEAN_MOTION":15.30213586,"ECCENTRICITY":0.00016365,"INCLINATION":53.1617,"RA_OF_ASC_NODE":70.4901,"ARG_OF_PERICENTER":120.4052,"MEAN_ANOMALY":239.7111,"EPHEMERIS_TYPE":0,"CLASSIFICATION_TYPE":"U","NORAD_CAT_ID":58716,"ELEMENT_SET_NO":999,"REV_AT_EPOCH":11540,"BSTAR":-6.026616e-5,"MEAN_MOTION_DOT":-2.145e-5,"MEAN_MOTION_DDOT":0},{"OBJECT_NAME":"STARLINK-31093","OBJECT_ID":"2024-002N","EPOCH":"2026-01-25T20:02:41.603136","MEAN_MOTION":15.30196549,"ECCENTRICITY":0.0001277,"INCLINATION":53.1594,"RA_OF_ASC_NODE":69.0373,"ARG_OF_PERICENTER":87.7449,"MEAN_ANOMALY":272.3698,"EPHEMERIS_TYPE":0,"CLASSIFICATION_TYPE":"U","NORAD_CAT_ID":58717,"ELEMENT_SET_NO":999,"REV_AT_EPOCH":11545,"BSTAR":6.9579031e-5,"MEAN_MOTION_DOT":1.702e-5,"MEAN_MOTION_DDOT":0},{"OBJECT_NAME":"STARLINK-31097","OBJECT_ID":"2024-002P","EPOCH":"2026-01-25T12:07:51.825216","MEAN_MOTION":15.30191905,"ECCENTRICITY":0.00012448,"INCLINATION":53.1595,"RA_OF_ASC_NODE":70.5187,"ARG_OF_PERICENTER":95.0182,"MEAN_ANOMALY":265.096,"EPHEMERIS_TYPE":0,"CLASSIFICATION_TYPE":"U","NORAD_CAT_ID":58718,"ELEMENT_SET_NO":999,"REV_AT_EPOCH":11540,"BSTAR":4.5730304e-5,"MEAN_MOTION_DOT":9.95e-6,"MEAN_MOTION_DDOT":0},{"OBJECT_NAME":"STARLINK-31051","OBJECT_ID":"2024-002Q","EPOCH":"2026-01-25T20:05:43.600416","MEAN_MOTION":15.30195847,"ECCENTRICITY":0.00014245,"INCLINATION":53.1609,"RA_OF_ASC_NODE":69.0334,"ARG_OF_PERICENTER":92.244,"MEAN_ANOMALY":267.8723,"EPHEMERIS_TYPE":0,"CLASSIFICATION_TYPE":"U","NORAD_CAT_ID":58719,"ELEMENT_SET_NO":999,"REV_AT_EPOCH":11545,"BSTAR":1.8822454e-5,"MEAN_MOTION_DOT":1.98e-6,"MEAN_MOTION_DDOT":0},{"OBJECT_NAME":"STARLINK-31027","OBJECT_ID":"2024-002R","EPOCH":"2026-01-25T20:02:18.579264","MEAN_MOTION":15.33058246,"ECCENTRICITY":0.00034003,"INCLINATION":53.1584,"RA_OF_ASC_NODE":68.3158,"ARG_OF_PERICENTER":60.5108,"MEAN_ANOMALY":299.6233,"EPHEMERIS_TYPE":0,"CLASSIFICATION_TYPE":"U","NORAD_CAT_ID":58720,"ELEMENT_SET_NO":999,"REV_AT_EPOCH":11546,"BSTAR":0.0047886483,"MEAN_MOTION_DOT":0.00158017,"MEAN_MOTION_DDOT":0},{"OBJECT_NAME":"STARLINK-30972","OBJECT_ID":"2024-002S","EPOCH":"2026-01-25T11:55:42.673152","MEAN_MOTION":15.30210792,"ECCENTRICITY":0.00012074,"INCLINATION":53.1616,"RA_OF_ASC_NODE":70.4672,"ARG_OF_PERICENTER":54.6541,"MEAN_ANOMALY":305.4573,"EPHEMERIS_TYPE":0,"CLASSIFICATION_TYPE":"U","NORAD_CAT_ID":58721,"ELEMENT_SET_NO":999,"REV_AT_EPOCH":11540,"BSTAR":-4.1256976e-5,"MEAN_MOTION_DOT":-1.581e-5,"MEAN_MOTION_DDOT":0},{"OBJECT_NAME":"STARLINK-31040","OBJECT_ID":"2024-002T","EPOCH":"2026-01-25T09:11:55.972608","MEAN_MOTION":15.30179948,"ECCENTRICITY":0.00016456,"INCLINATION":53.1627,"RA_OF_ASC_NODE":71.1746,"ARG_OF_PERICENTER":96.8643,"MEAN_ANOMALY":263.2545,"EPHEMERIS_TYPE":0,"CLASSIFICATION_TYPE":"U","NORAD_CAT_ID":58722,"ELEMENT_SET_NO":999,"REV_AT_EPOCH":11538,"BSTAR":-2.012246e-5,"MEAN_MOTION_DOT":-9.55e-6,"MEAN_MOTION_DDOT":0},{"OBJECT_NAME":"STARLINK-31033","OBJECT_ID":"2024-002U","EPOCH":"2026-01-25T12:06:21.182112","MEAN_MOTION":15.30187808,"ECCENTRICITY":0.00013206,"INCLINATION":53.1599,"RA_OF_ASC_NODE":70.508,"ARG_OF_PERICENTER":85.1121,"MEAN_ANOMALY":275.0031,"EPHEMERIS_TYPE":0,"CLASSIFICATION_TYPE":"U","NORAD_CAT_ID":58723,"ELEMENT_SET_NO":999,"REV_AT_EPOCH":11540,"BSTAR":2.0731701e-5,"MEAN_MOTION_DOT":2.55e-6,"MEAN_MOTION_DDOT":0},{"OBJECT_NAME":"STARLINK-30893","OBJECT_ID":"2024-002V","EPOCH":"2026-01-25T20:28:32.094336","MEAN_MOTION":15.30173319,"ECCENTRICITY":0.00015629,"INCLINATION":53.1599,"RA_OF_ASC_NODE":69.1339,"ARG_OF_PERICENTER":104.9798,"MEAN_ANOMALY":255.1376,"EPHEMERIS_TYPE":0,"CLASSIFICATION_TYPE":"U","NORAD_CAT_ID":58724,"ELEMENT_SET_NO":999,"REV_AT_EPOCH":11544,"BSTAR":0.00024114897,"MEAN_MOTION_DOT":6.784e-5,"MEAN_MOTION_DDOT":0},{"OBJECT_NAME":"STARLINK-30856","OBJECT_ID":"2024-002W","EPOCH":"2026-01-25T19:50:31.772832","MEAN_MOTION":15.30198069,"ECCENTRICITY":0.00010992,"INCLINATION":53.1629,"RA_OF_ASC_NODE":68.9678,"ARG_OF_PERICENTER":80.6549,"MEAN_ANOMALY":279.4576,"EPHEMERIS_TYPE":0,"CLASSIFICATION_TYPE":"U","NORAD_CAT_ID":58725,"ELEMENT_SET_NO":999,"REV_AT_EPOCH":11545,"BSTAR":1.317762e-5,"MEAN_MOTION_DOT":3.1e-7,"MEAN_MOTION_DDOT":0},{"OBJECT_NAME":"STARLINK-31115","OBJECT_ID":"2024-005B","EPOCH":"2026-01-25T14:17:07.065888","MEAN_MOTION":15.02537975,"ECCENTRICITY":0.0001385,"INCLINATION":43.0035,"RA_OF_ASC_NODE":95.3916,"ARG_OF_PERICENTER":263.6468,"MEAN_ANOMALY":96.4216,"EPHEMERIS_TYPE":0,"CLASSIFICATION_TYPE":"U","NORAD_CAT_ID":58729,"ELEMENT_SET_NO":999,"REV_AT_EPOCH":11393,"BSTAR":-0.00016294,"MEAN_MOTION_DOT":-2.404e-5,"MEAN_MOTION_DDOT":0},{"OBJECT_NAME":"STARLINK-31180","OBJECT_ID":"2024-005E","EPOCH":"2026-01-25T14:55:29.585280","MEAN_MOTION":15.0251717,"ECCENTRICITY":0.0001487,"INCLINATION":43.0016,"RA_OF_ASC_NODE":95.6013,"ARG_OF_PERICENTER":247.3048,"MEAN_ANOMALY":112.7637,"EPHEMERIS_TYPE":0,"CLASSIFICATION_TYPE":"U","NORAD_CAT_ID":58732,"ELEMENT_SET_NO":999,"REV_AT_EPOCH":11393,"BSTAR":-6.3434e-5,"MEAN_MOTION_DOT":-1.06e-5,"MEAN_MOTION_DDOT":0},{"OBJECT_NAME":"STARLINK-31164","OBJECT_ID":"2024-005F","EPOCH":"2026-01-25T14:12:28.678176","MEAN_MOTION":15.02538127,"ECCENTRICITY":0.0001017,"INCLINATION":43.0045,"RA_OF_ASC_NODE":96.2278,"ARG_OF_PERICENTER":278.8527,"MEAN_ANOMALY":81.22,"EPHEMERIS_TYPE":0,"CLASSIFICATION_TYPE":"U","NORAD_CAT_ID":58733,"ELEMENT_SET_NO":999,"REV_AT_EPOCH":11392,"BSTAR":-9.9826e-5,"MEAN_MOTION_DOT":-1.552e-5,"MEAN_MOTION_DDOT":0}]
